ONEWEB-0228             
1 48780U 21045P   23216.07968323  .00000179  00000+0  44218-3 0  9999
2 48780  87.9003 107.9028 0001707  79.3821 280.7502 13.15551206107650
